{
  "type": "FeatureCollection",
  "features": [
    {
      "type": "Feature",
      "properties": {
        "norad_id": 34434,
        "name": "COSMOS 2251 DEB",
        "group": "cosmos-2251-debris",
        "lat": -63.491495705109244,
        "lon": -118.33294094859818,
        "alt_km": 903.8844587535305,
        "timestamp": "2025-12-02T23:34:15.911487+00:00",
        "meta_object_name": "COSMOS 2251 DEB",
        "meta_object_id": "1993-036SB",
        "meta_epoch": "2025-12-02T12:42:23.764608",
        "meta_mean_motion": 13.89681576,
        "meta_eccentricity": 0.0276549,
        "meta_inclination": 74.0641,
        "meta_ra_of_asc_node": 27.4882,
        "meta_arg_of_pericenter": 167.1096,
        "meta_mean_anomaly": 334.3995,
        "meta_ephemeris_type": 0,
        "meta_classification_type": "U",
        "meta_norad_cat_id": 34434,
        "meta_element_set_no": 999,
        "meta_rev_at_epoch": 83824,
        "meta_bstar": 0.003546,
        "meta_mean_motion_dot": 5.895e-05,
        "meta_mean_motion_ddot": 0,
        "tle_line1": "1 34434U 93036SB  25336.52944172  .00005895  00000+0  35460-2 0  9998",
        "tle_line2": "2 34434  74.0641  27.4882 0276549 167.1096 334.3995 13.89681576838241"
      },
      "geometry": {
        "type": "Point",
        "coordinates": [
          -118.33294094859818,
          -63.491495705109244
        ]
      }
    },
    {
      "type": "Feature",
      "properties": {
        "norad_id": 34446,
        "name": "COSMOS 2251 DEB",
        "group": "cosmos-2251-debris",
        "lat": 38.13395231423587,
        "lon": -117.40181014080184,
        "alt_km": 715.4749147848988,
        "timestamp": "2025-12-02T23:34:15.911498+00:00",
        "meta_object_name": "COSMOS 2251 DEB",
        "meta_object_id": "1993-036SP",
        "meta_epoch": "2025-12-02T08:00:49.767840",
        "meta_mean_motion": 14.49331675,
        "meta_eccentricity": 0.0051613,
        "meta_inclination": 74.0421,
        "meta_ra_of_asc_node": 76.7946,
        "meta_arg_of_pericenter": 217.1215,
        "meta_mean_anomaly": 142.6372,
        "meta_ephemeris_type": 0,
        "meta_classification_type": "U",
        "meta_norad_cat_id": 34446,
        "meta_element_set_no": 999,
        "meta_rev_at_epoch": 88543,
        "meta_bstar": 0.00023587,
        "meta_mean_motion_dot": 8.87e-06,
        "meta_mean_motion_ddot": 0,
        "tle_line1": "1 34446U 93036SP  25336.33390935  .00000887  00000+0  23587-3 0  9996",
        "tle_line2": "2 34446  74.0421  76.7946 0051613 217.1215 142.6372 14.49331675885431"
      },
      "geometry": {
        "type": "Point",
        "coordinates": [
          -117.40181014080184,
          38.13395231423587
        ]
      }
    },
    {
      "type": "Feature",
      "properties": {
        "norad_id": 34449,
        "name": "COSMOS 2251 DEB",
        "group": "cosmos-2251-debris",
        "lat": 31.969025592364986,
        "lon": -100.07219479680798,
        "alt_km": 566.5131699791009,
        "timestamp": "2025-12-02T23:34:15.911508+00:00",
        "meta_object_name": "COSMOS 2251 DEB",
        "meta_object_id": "1993-036SS",
        "meta_epoch": "2025-12-02T08:44:40.006752",
        "meta_mean_motion": 14.93785341,
        "meta_eccentricity": 0.0025024,
        "meta_inclination": 74.0323,
        "meta_ra_of_asc_node": 91.4653,
        "meta_arg_of_pericenter": 141.1414,
        "meta_mean_anomaly": 284.4895,
        "meta_ephemeris_type": 0,
        "meta_classification_type": "U",
        "meta_norad_cat_id": 34449,
        "meta_element_set_no": 999,
        "meta_rev_at_epoch": 88538,
        "meta_bstar": 0.0040761,
        "meta_mean_motion_dot": 0.00043727,
        "meta_mean_motion_ddot": 0,
        "tle_line1": "1 34449U 93036SS  25336.36435193  .00043727  00000+0  40761-2 0  9990",
        "tle_line2": "2 34449  74.0323  91.4653 0025024 141.1414 284.4895 14.93785341885389"
      },
      "geometry": {
        "type": "Point",
        "coordinates": [
          -100.07219479680798,
          31.969025592364986
        ]
      }
    },
    {
      "type": "Feature",
      "properties": {
        "norad_id": 34451,
        "name": "COSMOS 2251 DEB",
        "group": "cosmos-2251-debris",
        "lat": 73.79016453040732,
        "lon": -152.24017510931705,
        "alt_km": 562.8197293184121,
        "timestamp": "2025-12-02T23:34:15.911518+00:00",
        "meta_object_name": "COSMOS 2251 DEB",
        "meta_object_id": "1993-036SU",
        "meta_epoch": "2025-12-02T10:18:18.338688",
        "meta_mean_motion": 14.94509424,
        "meta_eccentricity": 0.0025909,
        "meta_inclination": 74.0446,
        "meta_ra_of_asc_node": 108.65,
        "meta_arg_of_pericenter": 135.584,
        "meta_mean_anomaly": 224.7428,
        "meta_ephemeris_type": 0,
        "meta_classification_type": "U",
        "meta_norad_cat_id": 34451,
        "meta_element_set_no": 999,
        "meta_rev_at_epoch": 88481,
        "meta_bstar": 0.0036538,
        "meta_mean_motion_dot": 0.00039917,
        "meta_mean_motion_ddot": 0,
        "tle_line1": "1 34451U 93036SU  25336.42937892  .00039917  00000+0  36538-2 0  9996",
        "tle_line2": "2 34451  74.0446 108.6500 0025909 135.5840 224.7428 14.94509424884815"
      },
      "geometry": {
        "type": "Point",
        "coordinates": [
          -152.24017510931705,
          73.79016453040732
        ]
      }
    },
    {
      "type": "Feature",
      "properties": {
        "norad_id": 34452,
        "name": "COSMOS 2251 DEB",
        "group": "cosmos-2251-debris",
        "lat": -30.14897401536675,
        "lon": -166.56400418746313,
        "alt_km": 506.2110297757499,
        "timestamp": "2025-12-02T23:34:15.911529+00:00",
        "meta_object_name": "COSMOS 2251 DEB",
        "meta_object_id": "1993-036SV",
        "meta_epoch": "2025-12-02T02:08:14.098848",
        "meta_mean_motion": 15.11237153,
        "meta_eccentricity": 0.00674196,
        "meta_inclination": 74.0357,
        "meta_ra_of_asc_node": 204.8534,
        "meta_arg_of_pericenter": 283.4446,
        "meta_mean_anomaly": 227.9055,
        "meta_ephemeris_type": 0,
        "meta_classification_type": "U",
        "meta_norad_cat_id": 34452,
        "meta_element_set_no": 999,
        "meta_rev_at_epoch": 90501,
        "meta_bstar": 0.00092792999,
        "meta_mean_motion_dot": 0.00016471,
        "meta_mean_motion_ddot": 0,
        "tle_line1": "1 34452U 93036SV  25336.08905207  .00016471  00000+0  92793-3 0  9990",
        "tle_line2": "2 34452  74.0357 204.8534 0067419 283.4446 227.9055 15.11237153905014"
      },
      "geometry": {
        "type": "Point",
        "coordinates": [
          -166.56400418746313,
          -30.14897401536675
        ]
      }
    },
    {
      "type": "Feature",
      "properties": {
        "norad_id": 34453,
        "name": "COSMOS 2251 DEB",
        "group": "cosmos-2251-debris",
        "lat": -27.98483370274211,
        "lon": 112.42471320081052,
        "alt_km": 391.4688432638659,
        "timestamp": "2025-12-02T23:34:15.911539+00:00",
        "meta_object_name": "COSMOS 2251 DEB",
        "meta_object_id": "1993-036SW",
        "meta_epoch": "2025-12-02T11:21:13.424256",
        "meta_mean_motion": 15.55953745,
        "meta_eccentricity": 0.0017801,
        "meta_inclination": 74.1166,
        "meta_ra_of_asc_node": 122.2488,
        "meta_arg_of_pericenter": 354.2593,
        "meta_mean_anomaly": 5.8416,
        "meta_ephemeris_type": 0,
        "meta_classification_type": "U",
        "meta_norad_cat_id": 34453,
        "meta_element_set_no": 999,
        "meta_rev_at_epoch": 88706,
        "meta_bstar": 0.01092,
        "meta_mean_motion_dot": 0.00833226,
        "meta_mean_motion_ddot": 0,
        "tle_line1": "1 34453U 93036SW  25336.47307204  .00833226  00000+0  10920-1 0  9992",
        "tle_line2": "2 34453  74.1166 122.2488 0017801 354.2593   5.8416 15.55953745887063"
      },
      "geometry": {
        "type": "Point",
        "coordinates": [
          112.42471320081052,
          -27.98483370274211
        ]
      }
    },
    {
      "type": "Feature",
      "properties": {
        "norad_id": 34454,
        "name": "COSMOS 2251 DEB",
        "group": "cosmos-2251-debris",
        "lat": 31.719056773757142,
        "lon": -54.21702815657075,
        "alt_km": 739.2830278990814,
        "timestamp": "2025-12-02T23:34:15.911550+00:00",
        "meta_object_name": "COSMOS 2251 DEB",
        "meta_object_id": "1993-036SX",
        "meta_epoch": "2025-12-02T06:43:51.827808",
        "meta_mean_motion": 14.38778684,
        "meta_eccentricity": 0.0035144,
        "meta_inclination": 74.0585,
        "meta_ra_of_asc_node": 296.8993,
        "meta_arg_of_pericenter": 1.7244,
        "meta_mean_anomaly": 358.4025,
        "meta_ephemeris_type": 0,
        "meta_classification_type": "U",
        "meta_norad_cat_id": 34454,
        "meta_element_set_no": 999,
        "meta_rev_at_epoch": 87917,
        "meta_bstar": 0.00037417,
        "meta_mean_motion_dot": 1.132e-05,
        "meta_mean_motion_ddot": 0,
        "tle_line1": "1 34454U 93036SX  25336.28046097  .00001132  00000+0  37417-3 0  9997",
        "tle_line2": "2 34454  74.0585 296.8993 0035144   1.7244 358.4025 14.38778684879177"
      },
      "geometry": {
        "type": "Point",
        "coordinates": [
          -54.21702815657075,
          31.719056773757142
        ]
      }
    }
  ]
}